IRIDIUM 33 DEB          
1 34102U 97051DM  17345.80356569  .00002676  00000-0  10661-2 0  9991
2 34102  86.3750 259.0615 0123075  18.1629  37.1651 14.24216929454662
